STARLINK-30216
1 57451U 23105X   26061.16668981  .01145793  00000+0  51866-1 0  9999
2 57451  42.9992 301.4678 0002012 271.5937  14.0740 15.17345998  5819
STARLINK-30299
1 57650U 23122U   26060.91668981  .00696219  00000+0  31928-1 0  9991
2 57650  43.0014 135.9525 0001431 286.3991  63.1495 15.17360286  5837
STARLINK-30538
1 57994U 23153D   26061.16668981  .01148749  00000+0  51960-1 0  9993
2 57994  43.0009 109.3836 0001259 251.5697 251.5255 15.17362902  5819
STARLINK-30602
1 58081U 23160G   26061.16668981  .01450072  00000+0  65220-1 0  9998
2 58081  42.9997 120.2867 0001448 288.9930 157.9699 15.17343885  5619
STARLINK-30956
1 58481U 23186J   26061.16668981  .02498150  00000+0  10977+0 0  9997
2 58481  43.0006  83.2565 0002208 220.5382 276.0828 15.17386073  5812
